BEIDOU-3 M14 (C33)      
1 43623U 18072B   26106.65134443 -.00000011  00000+0  00000+0 0  9992
2 43623  56.5747  64.6834 0006829 338.6771  21.2649  1.86231311 51506
BEIDOU-3 M16 (C35)      
1 43647U 18078A   26106.80765123 -.00000029  00000+0  00000+0 0  9995
2 43647  54.1465 302.1370 0008269  37.2182 322.8502  1.86232242 51014
BEIDOU-3 M15 (C34)      
1 43648U 18078B   26105.86305976 -.00000025  00000+0  00000+0 0  9993
2 43648  54.1430 302.1715 0005314  46.8263 313.2338  1.86232479 51017
BEIDOU-3 G1 (C59)       
1 43683U 18085A   26107.27903718 -.00000099  00000+0  00000+0 0  9996
2 43683   2.9199  98.9879 0007224 332.3225  34.6974  1.00266447 27452
COSMOS 2529 (757)       
1 43687U 18086A   26106.23898389  .00000036  00000+0  00000+0 0  9993
2 43687  64.2931 194.6847 0009885 254.4573 105.4781  2.13102124 57963
BEIDOU-3 M17 (C36)      
1 43706U 18093A   26107.14212792  .00000054  00000+0  00000+0 0  9992
2 43706  54.1672 184.3679 0008643 291.5827  98.3830  1.86228322 50404
BEIDOU-3 M18 (C37)      
1 43707U 18093B   26105.34929638  .00000040  00000+0  00000+0 0  9992
2 43707  54.1684 184.4208 0006682 327.0532  32.9643  1.86226579 50369
GPS BIII-1  (PRN 04)    
1 43873U 18109A   26107.19055925  .00000048  00000+0  00000+0 0  9996
2 43873  55.6448  94.5916 0037956 198.9165 162.9250  2.00558724 53851
BEIDOU-3 IGSO-1 (C38)   
1 44204U 19023A   26105.75831388 -.00000222  00000+0  00000+0 0  9991
2 44204  58.6123  38.2943 0024504 235.7846 320.2202  1.00258189  6584
BEIDOU-2 G8 (C01)       
1 44231U 19027A   26107.25347951 -.00000239  00000+0  00000+0 0  9998
2 44231   1.5025  74.3358 0011113 278.6833  88.1995  1.00271315 25471
COSMOS 2534 (758)       
1 44299U 19030A   26106.01780463  .00000034  00000+0  00000+0 0  9990
2 44299  64.3663 194.7085 0011393 277.1646  47.6037  2.13102445 53593
BEIDOU-3 IGSO-2 (C39)   
1 44337U 19035A   26107.03473487 -.00000072  00000+0  00000+0 0  9999
2 44337  55.2344 159.4009 0039457 214.5073 322.9268  1.00285611 25052
GPS BIII-2  (PRN 18)    
1 44506U 19056A   26107.06393343 -.00000054  00000+0  00000+0 0  9995
2 44506  55.6644 333.5732 0059252 197.5606 334.7041  2.00568803 48842
BEIDOU-3 M24 (C46)      
1 44542U 19061A   26107.02962255  .00000053  00000+0  00000+0 0  9999
2 44542  54.3947 184.7908 0008057  10.6266 349.4592  1.86229238 44657
BEIDOU-3 M23 (C45)      
1 44543U 19061B   26106.14009623  .00000048  00000+0  00000+0 0  9997
2 44543  54.3937 184.7895 0004827 353.3832  42.3040  1.86227369 44648
EUTELSAT 5 WEST B (EGN*)
1 44624U 19067A   26107.22383939 -.00000036  00000+0  00000+0 0  9996
2 44624   0.0771  32.1502 0003261 359.1443 249.6485  1.00271585 23823
BEIDOU-3 IGSO-3 (C40)   
1 44709U 19073A   26106.88610132 -.00000188  00000+0  00000+0 0  9994
2 44709  54.9069 281.5569 0041771 188.6427 171.2100  1.00255631 23843
BEIDOU-3 M22 (C44)      
1 44793U 19078A   26106.86864328 -.00000029  00000+0  00000+0 0  9992
2 44793  53.9924 301.9851 0007408  43.8467 316.2225  1.86227320 43503
BEIDOU-3 M21 (C43)      
1 44794U 19078B   26105.93481333 -.00000026  00000+0  00000+0 0  9998
2 44794  53.9663 301.9807 0005249  40.4725 319.5814  1.86227882 43497
COSMOS 2544 (759)       
1 44850U 19088A   26106.55601523  .00000028  00000+0  00000+0 0  9997
2 44850  65.5320  75.7866 0015310 261.7996  98.0076  2.13102103 49403
BEIDOU-3 M19 (C41)      
1 44864U 19090A   26106.48372830 -.00000010  00000+0  00000+0 0  9995
2 44864  56.5072  64.8295 0020010 294.9819 269.9183  1.86231558 43084
BEIDOU-3 M20 (C42)      
1 44865U 19090B   26107.11819229 -.00000013  00000+0  00000+0 0  9998
2 44865  56.5087  64.8431 0017530 307.3177  52.5596  1.86231481 43070
BEIDOU-3 G2 (C60)       
1 45344U 20017A   26107.16915250 -.00000133  00000+0  00000+0 0  9991
2 45344   2.7409  46.3314 0002542 348.0830 311.8271  1.00272622 22643
COSMOS 2545 (760)       
1 45358U 20018A   26104.40518127 -.00000001  00000+0  00000+0 0  9997
2 45358  64.3930 314.6613 0007081 242.0392 117.9382  2.13102532 47308
BEIDOU-3 G3 (C61)       
1 45807U 20040A   26107.03282819 -.00000346  00000+0  00000+0 0  9991
2 45807   2.2969  67.2887 0003703 326.9022 293.2977  1.00275589 21457
GPS BIII-3  (PRN 23)    
1 45854U 20041A   26107.08901795 -.00000067  00000+0  00000+0 0  9990
2 45854  56.6327  31.3151 0061967 205.0356 286.0911  2.00559697 42816
GALAXY 30 (WAAS/PRN 135)
1 46114U 20056C   26107.20009262  .00000000  00000+0  00000+0 0  9994
2 46114   0.0204 241.4119 0002109 149.1496 121.7924  1.00270153 20683
COSMOS 2547 (705K)      
1 46805U 20075A   26106.94041514  .00000042  00000+0  00000+0 0  9994
2 46805  64.5975 194.5180 0007933 235.0554 124.9189  2.13100521 42606
GPS BIII-4  (PRN 14)    
1 46826U 20078A   26105.94814102  .00000008  00000+0  00000+0 0  9992
2 46826  53.9911 213.3025 0070592 205.4114 156.3893  2.00564913 40269
GPS BIII-5  (PRN 11)    
1 48859U 21054A   26101.48030462 -.00000063  00000+0  00000+0 0  9991
2 48859  55.2039 335.1429 0023876 230.6302 330.3614  2.00573457 35415
QZS-1R (QZSS/PRN 196)   
1 49336U 21096A   26107.25339285 -.00000192  00000+0  00000+0 0  9997
2 49336  37.3379  80.4811 0750572 270.6290  81.1773  1.00275906 16401
GSAT0223 (GALILEO 27)   
1 49809U 21116A   26106.14273341 -.00000063  00000+0  00000+0 0  9999
2 49809  57.1797 343.3527 0001834 280.9810 280.7931  1.70475568 27124
GSAT0224 (GALILEO 28)   
1 49810U 21116B   26105.33975385 -.00000063  00000+0  00000+0 0  9998
2 49810  57.1806 343.3736 0000727 353.1628 188.4061  1.70475628 27135
COSMOS 2557 (706K)      
1 52984U 22075A   26106.16666615 -.00000008  00000+0  00000+0 0  9993
2 52984  64.3345 316.6715 0010517 283.0862  76.8443  2.13102137 29392
COSMOS 2559 (707K)      
1 54031U 22130A   26104.10911193 -.00000004  00000+0  00000+0 0  9992
2 54031  64.3085 316.8289 0011105 176.7322 183.3263  2.13101429 27327
COSMOS 2564 (761)       
1 54377U 22161A   26105.82956779  .00000033  00000+0  00000+0 0  9999
2 54377  64.7392 194.7806 0010697 217.8944 142.0724  2.13101832 26304
GPS BIII-6  (PRN 28)    
1 55268U 23009A   26103.14141970  .00000066  00000+0  00000+0 0  9999
2 55268  55.1121 151.0760 0005176 314.9642  42.8982  2.00575954 23938
BEIDOU-3 G4 (C62)       
1 56564U 23066A   26107.25252617 -.00000275  00000+0  00000+0 0  9992
2 56564   0.5738 318.0144 0002502 165.3329 312.9632  1.00275557 10784
NVS-01 (IRNSS-1J)       
1 56759U 23076A   26107.24072517 -.00000331  00000+0  00000+0 0  9990
2 56759   2.3122 246.9703 0005713  48.9030 125.7280  1.00272708 10503
COSMOS 2569 (703K)      
1 57517U 23114A   26107.24988688  .00000021  00000+0  00000+0 0  9996
2 57517  65.2693  74.6741 0012621 294.7422  65.1038  2.13103758 20969
BEIDOU-3 M28 (C50)      
1 58654U 23207A   26106.54902059 -.00000013  00000+0  00000+0 0  9994
2 58654  55.7007  64.3813 0004774 319.0384  40.8970  1.86229653 15690
BEIDOU-3 M26 (C48)      
1 58655U 23207B   26106.88347007 -.00000015  00000+0  00000+0 0  9990
2 58655  55.7021  64.3567 0005230 302.0144  57.9051  1.86229596 15681
GSAT0225 (GALILEO 29)   
1 59598U 24079A   26105.32098455  .00000073  00000+0  00000+0 0  9996
2 59598  55.0782 102.8354 0002840 274.7268 248.4558  1.70474525 12248
GSAT0227 (GALILEO 30)   
1 59600U 24079C   26103.47880739  .00000071  00000+0  00000+0 0  9996
2 59600  55.0733 102.8851 0001006   8.3967 351.6365  1.70474531 12262
GSAT0232 (GALILEO 32)   
1 61182U 24167A   26106.04448286 -.00000002  00000+0  00000+0 0  9990
2 61182  55.2049 223.0176 0004577 209.9854 140.1731  1.70474308  9815
GSAT0226 (GALILEO 31)   
1 61183U 24167B   26105.90397360 -.00000003  00000+0  00000+0 0  9992
2 61183  55.2037 223.0288 0001743 179.7111 175.5573  1.70474259  9786
BEIDOU-3 M25 (C47)      
1 61186U 24168B   26105.63172556 -.00000025  00000+0  00000+0 0  9998
2 61186  54.5297 304.4161 0003503 319.1443  38.6981  1.86230021 10617
BEIDOU-3 M27 (C49)      
1 61187U 24168C   26106.99565914 -.00000030  00000+0  00000+0 0  9999
2 61187  54.5242 304.3516 0002629  36.0486 291.2477  1.86230043  8114
GPS BIII-7  (PRN 01)    
1 62339U 24242A   26106.27026337 -.00000057  00000+0  00000+0 0  9993
2 62339  54.8729 336.6932 0016821   3.1791 177.1084  2.00570300 10018
NVS-02 (IRNSS-1K)       
1 62850U 25020A   26105.09652061  .00001075  00000+0  96177-3 0  9998
2 62850  20.8067 282.3395 7349511 107.4045 338.8581  2.17842599  9607
QZS-6 (QZSS/PRN 200)    
1 62876U 25023A   26107.19052706 -.00000226  00000+0  00000+0 0  9996
2 62876   0.0165 279.4984 0001872 111.4808 333.4641  1.00269182  4341
COSMOS 2584 (704K)      
1 63130U 25042A   26105.25976911  .00000034  00000+0  00000+0 0  9995
2 63130  65.0502  74.9401 0007045 238.4274 121.4904  2.13103565  8706
GPS BIII-8  (PRN 21)    
1 64202U 25116A   26107.01263477 -.00000066  00000+0  00000+0 0  9996
2 64202  55.1946  33.5931 0009054 335.2761 203.8483  2.00550075  6643
COSMOS 2596 (708K)      
1 65590U 25206B   26105.29908970 -.00000005  00000+0  00000+0 0  9992
2 65590  64.6705 317.1760 0011938 317.2088 189.9426  2.13100460  4573
GSAT0233 (GALILEO 33)   
1 67160U 25302A   26107.22539940  .00000063  00000+0  00000+0 0  9999
2 67160  54.2954 103.8663 0002313 241.4407 301.2885  1.70474484  2085
GSAT0234 (GALILEO 34)   
1 67162U 25302C   26105.46169840  .00000072  00000+0  00000+0 0  9993
2 67162  54.2958 103.9153 0003971 291.4076  68.9989  1.70474574  2110
GPS BIII-9  (PRN 20)    
1 67588U 26017A   26106.37592322  .00000047  00000+0  00000+0 0  9997
2 67588  55.0454  91.2345 0024223 252.0994 107.6382  2.00553266430370
